1 44909U 19096E   21258.06726886  .00000022  00000-0  49881-4 0  9990
2 44909  82.5191  53.2557 0216294 243.5678 114.3027 12.79710770 80322